QIANFAN-9               
1 60387U 24140J   25337.50045634  .00000094  00000+0  12664-3 0  9996
2 60387  88.9753 300.2929 0014677 220.3286 139.6777 13.50979485 66080
QIANFAN-10              
1 60388U 24140K   25337.43058294  .00000073  00000+0  94467-4 0  9994
2 60388  88.9763 299.6463 0013731 195.3102 164.7635 13.50979970 66209
QIANFAN-11              
1 60389U 24140L   25337.46764397  .00000081  00000+0  10723-3 0  9997
2 60389  88.9689 300.2367 0012722 219.4417 140.5809 13.50976247 65865
QIANFAN-12              
1 60390U 24140M   25337.41408008  .00000090  00000+0  12049-3 0  9991
2 60390  88.9732 300.2816 0011383 228.4897 131.5278 13.50976952 65985
QIANFAN-13              
1 60391U 24140N   25337.45934523  .00000088  00000+0  11762-3 0  9990
2 60391  88.9744 300.3757 0011161 231.3635 128.6518 13.50977479 66015
QIANFAN-14              
1 60392U 24140P   25337.40987010  .00000097  00000+0  13102-3 0  9995
2 60392  88.9723 300.2804 0014840 232.3888 127.5917 13.50977051 66010
QIANFAN-15              
1 60393U 24140Q   25337.41815156  .00000101  00000+0  13823-3 0  9994
2 60393  88.9747 300.2338 0010916 215.3989 144.6439 13.50975863 66009
QIANFAN-16              
1 60394U 24140R   25337.48001571  .00000084  00000+0  11177-3 0  9990
2 60394  88.9750 300.3473 0012739 236.1224 123.8715 13.50975917 65929
